ONEWEB-0371             
1 49297U 21090U   25239.09650779 -.00000178  00000+0 -47757-3 0  9997
2 49297  87.9276   3.4341 0001687  97.3211 262.8113 13.19725149187665
ONEWEB-0372             
1 49298U 21090V   25239.22499551  .00000145  00000+0  32572-3 0  9993
2 49298  87.9290 333.0361 0001905  96.5907 263.5443 13.20771978191035
ONEWEB-0373             
1 49299U 21090W   25239.02467087  .00000095  00000+0  20205-3 0  9995
2 49299  87.9295 333.0886 0001961 102.0716 258.0637 13.20773426192198
ONEWEB-0374             
1 49300U 21090X   25239.22797265  .00000276  00000+0  71008-3 0  9992
2 49300  87.9088 348.2106 0002404  94.5566 265.5838 13.14504291188944
ONEWEB-0375             
1 49301U 21090Y   25239.23933019  .00000046  00000+0  80215-4 0  9999
2 49301  87.9298 333.0251 0002530 104.0497 256.0918 13.20773274191721
ONEWEB-0376             
1 49302U 21090Z   25238.86749926 -.00000008  00000+0 -52865-4 0  9990
2 49302  87.9273   3.4610 0001643  91.0643 269.0678 13.19725875187638
ONEWEB-0377             
1 49303U 21090AA  25238.99800802  .00000064  00000+0  12500-3 0  9997
2 49303  87.9302 333.0670 0001950 107.1147 253.0200 13.20770472191688
ONEWEB-0378             
1 49304U 21090AB  25239.24734384  .00000067  00000+0  13182-3 0  9998
2 49304  87.9311 333.0291 0002039  99.5098 260.6266 13.20773472190987
